OBJECT_NAME,OBJECT_ID,EPOCH,MEAN_MOTION,ECCENTRICITY,INCLINATION,RA_OF_ASC_NODE,ARG_OF_PERICENTER,MEAN_ANOMALY,EPHEMERIS_TYPE,CLASSIFICATION_TYPE,NORAD_CAT_ID,ELEMENT_SET_NO,REV_AT_EPOCH,BSTAR,MEAN_MOTION_DOT,MEAN_MOTION_DDOT
DONGPO 10,2022-167H,2026-05-16T07:20:24.468000,15.33767188,.00044131,97.6917,305.1174,212.6842,147.4127,0,U,54689,999,19047,.27445544E-3,.8881E-4,0
JILIN-1 GAOFEN 03D48,2022-167P,2026-05-16T07:39:31.453056,15.34502605,.00056821,97.6850,304.4994,220.0389,140.0435,0,U,54695,999,19050,.28730741E-3,.9523E-4,0
STAR VIBE,2023-001A,2026-05-16T02:46:58.520640,15.41691750,.00049571,97.3192,200.4697,213.6982,146.3951,0,U,55009,999,18728,.26244173E-3,.10994E-3,0
BRO-8,2023-001C,2026-05-16T02:45:43.726752,15.47040796,.00052993,97.3238,200.8837,220.7966,139.2888,0,U,55011,999,18724,.52074457E-3,.26299E-3,0
CONNECTA T1.2,2023-001D,2026-05-16T04:53:01.368384,15.48309512,.00062391,97.3294,206.3820,194.3648,165.7427,0,U,55012,999,18759,.56390133E-3,.29786E-3,0
BIRKELAND,2023-001G,2026-05-16T04:08:48.558336,15.39480834,.00060971,97.3362,204.0728,205.7816,154.3127,0,U,55015,999,18742,.17491683E-3,.678E-4,0
ION SCV-008,2023-001AU,2026-05-16T06:54:32.928768,15.28155474,.00163873,97.5697,232.0861,123.0632,237.2184,0,U,55051,999,18646,.19834319E-3,.5386E-4,0
ION SCV-007,2023-001BD,2026-05-16T03:58:45.024960,14.77521857,.00137664,97.9022,199.8133,80.9634,279.3133,0,U,55060,999,18152,.45483663E-4,.274E-5,0
HUYGENS,2023-001CN,2026-05-16T04:08:55.293216,15.39479840,.00095336,97.3268,203.3440,187.9670,172.1426,0,U,55093,999,18744,.17723603E-3,.6877E-4,0
SHARJAHSAT-1,2023-001CZ,2026-05-16T04:31:16.502016,15.47833923,.0005445,97.3194,204.5386,201.9578,158.1440,0,U,55104,999,18754,.30256913E-3,.15647E-3,0
HORUS 1,2023-025A,2026-05-16T03:57:10.342656,15.23575428,.00022313,97.3473,211.4305,109.0020,251.1459,0,U,55690,999,17917,.18597806E-3,.4378E-4,0
HORUS 2,2023-032A,2026-05-16T04:48:45.474048,15.23418178,.0002818,97.3543,212.2399,140.1765,219.9679,0,U,55844,999,17661,.17979784E-3,.4211E-4,0
GLOBAL-19,2023-041B,2026-05-15T18:24:08.615232,15.38325031,.0004836,42.0029,31.0367,121.3837,238.7476,0,U,55982,999,17693,.24142075E-3,.9073E-4,0
BRO-9,2023-054H,2026-05-15T13:27:51.609600,15.82157988,.00078654,97.2994,51.6472,123.7329,236.4690,0,U,56185,999,17390,.74515146E-3,.154667E-2,0
ION SCV-010,2023-054Q,2026-05-16T05:26:39.741504,15.25898714,.00117553,97.3822,26.1362,324.7980,35.2480,0,U,56192,999,17132,.13990229E-3,.3519E-4,0
TELEOS-2,2023-057C,2026-05-16T02:19:22.674144,14.96409266,.00006651,9.9882,77.8246,266.6332,93.3806,0,U,56310,999,16798,.26220497E-3,.3743E-4,0
SNIPE 4,2023-072B,2026-05-16T06:42:57.246336,15.41030774,.00070784,97.5277,341.3024,85.5513,274.6542,0,U,56744,999,16519,.4657534E-3,.19176E-3,0
SNIPE 2,2023-072C,2026-05-16T06:46:26.683392,15.45167884,.00063514,97.5275,344.1362,109.6757,250.5177,0,U,56745,999,16531,.46433423E-3,.21973E-3,0
2023-072G,2023-072G,2026-05-16T07:01:18.792768,15.48709793,.00056425,97.4929,342.9192,101.2141,258.9744,0,U,56749,999,16552,.54422052E-3,.29139E-3,0
GEISAT PRECURSOR,2023-084C,2026-05-16T06:20:34.263744,15.34183050,.0007292,97.6179,276.1869,100.0173,260.1892,0,U,56934,999,16263,.2005636E-3,.6556E-4,0
BLACKJACK ACES-3,2023-084U,2026-05-16T04:59:06.357408,15.18316419,.00041857,97.6165,271.1694,108.9258,251.2430,0,U,56950,999,16231,.16204561E-3,.3255E-4,0
BLACKJACK ACES-2,2023-084Z,2026-05-16T06:43:27.376608,15.18317032,.00026577,97.6162,271.3274,95.2487,264.9050,0,U,56955,999,16233,.24426604E-3,.4942E-4,0
BLACKJACK ACES-1,2023-084AA,2026-05-16T06:25:36.491808,15.18164352,.00015606,97.6151,271.0932,95.5935,264.5476,0,U,56956,999,11205,.27174793E-3,.5482E-4,0
ION SCV-011,2023-084AB,2026-05-16T06:05:39.427584,15.28511449,.00081093,98.1377,320.5840,141.3575,218.8244,0,U,56957,999,16093,.15152981E-3,.4119E-4,0
GHOST-3,2023-084AC,2026-05-16T05:11:43.651680,15.46784020,.00069299,97.6177,283.1094,58.7559,301.4368,0,U,56958,999,16307,.31103401E-3,.15513E-3,0
TOMORROW-R2,2023-084AG,2026-05-16T06:34:01.730496,15.89208775,.000184,97.5922,296.3827,278.4324,81.6739,0,U,56962,999,16396,.68091002E-3,.198867E-2,0
AFR-1,2023-084AJ,2026-05-16T06:47:49.047648,15.28261532,.00120425,97.6228,272.2225,92.1529,268.1089,0,U,56964,999,16235,.13300316E-3,.359E-4,0
METEOR-M2 3,2023-091A,2026-05-16T06:28:15.199968,14.24043820,.00027743,98.6106,191.8971,259.3665,100.7201,0,U,57166,999,14997,.1308714E-4,-.13E-6,0
UMKA 1 (RS40S),2023-091G,2026-05-16T01:07:31.163808,15.20424007,.00117424,97.5071,194.8735,225.9958,134.0310,0,U,57172,999,15912,.20422177E-3,.439E-4,0
2023-091H,2023-091H,2026-05-16T03:57:44.462880,15.27900155,.0009157,97.5069,199.1129,218.1152,141.9440,0,U,57173,999,15941,.34066616E-3,.9214E-4,0
