DONGPO 10               
1 54689U 22167H   26136.30583875  .00008881  00000+0  27446-3 0  9997
2 54689  97.6917 305.1174 0004413 212.6842 147.4127 15.33767188190477
JILIN-1 GAOFEN 03D48    
1 54695U 22167P   26136.31911404  .00009523  00000+0  28731-3 0  9990
2 54695  97.6850 304.4994 0005682 220.0389 140.0435 15.34502605190507
STAR VIBE               
1 55009U 23001A   26136.11595510  .00010994  00000+0  26244-3 0  9993
2 55009  97.3192 200.4697 0004957 213.6982 146.3951 15.41691750187280
BRO-8                   
1 55011U 23001C   26136.11508943  .00026299  00000+0  52074-3 0  9995
2 55011  97.3238 200.8837 0005299 220.7966 139.2888 15.47040796187245
CONNECTA T1.2           
1 55012U 23001D   26136.20348806  .00029786  00000+0  56390-3 0  9995
2 55012  97.3294 206.3820 0006239 194.3648 165.7427 15.48309512187595
BIRKELAND               
1 55015U 23001G   26136.17278424  .00006780  00000+0  17492-3 0  9991
2 55015  97.3362 204.0728 0006097 205.7816 154.3127 15.39480834187422
ION SCV-008             
1 55051U 23001AU  26136.28788112  .00005386  00000+0  19834-3 0  9996
2 55051  97.5697 232.0861 0016387 123.0632 237.2184 15.28155474186469
ION SCV-007             
1 55060U 23001BD  26136.16579890  .00000274  00000+0  45484-4 0  9996
2 55060  97.9022 199.8133 0013766  80.9634 279.3133 14.77521857181526
HUYGENS                 
1 55093U 23001CN  26136.17286219  .00006877  00000+0  17724-3 0  9993
2 55093  97.3268 203.3440 0009533 187.9670 172.1426 15.39479840187440
SHARJAHSAT-1            
1 55104U 23001CZ  26136.18838544  .00015647  00000+0  30257-3 0  9992
2 55104  97.3194 204.5386 0005445 201.9578 158.1440 15.47833923187541
HORUS 1                 
1 55690U 23025A   26136.16470304  .00004378  00000+0  18598-3 0  9995
2 55690  97.3473 211.4305 0002231 109.0020 251.1459 15.23575428179170
HORUS 2                 
1 55844U 23032A   26136.20052632  .00004211  00000+0  17980-3 0  9999
2 55844  97.3543 212.2399 0002818 140.1765 219.9679 15.23418178176614
GLOBAL-19               
1 55982U 23041B   26135.76676638  .00009073  00000+0  24142-3 0  9999
2 55982  42.0029  31.0367 0004836 121.3837 238.7476 15.38325031176938
BRO-9                   
1 56185U 23054H   26135.56101400  .00154667  00000+0  74515-3 0  9996
2 56185  97.2994  51.6472 0007865 123.7329 236.4690 15.82157988173909
ION SCV-010             
1 56192U 23054Q   26136.22684886  .00003519  00000+0  13990-3 0  9991
2 56192  97.3822  26.1362 0011755 324.7980  35.2480 15.25898714171324
TELEOS-2                
1 56310U 23057C   26136.09679021  .00003743  00000+0  26220-3 0  9995
2 56310   9.9882  77.8246 0000665 266.6332  93.3806 14.96409266167989
SNIPE 4                 
1 56744U 23072B   26136.27982924  .00019176  00000+0  46575-3 0  9994
2 56744  97.5277 341.3024 0007078  85.5513 274.6542 15.41030774165195
SNIPE 2                 
1 56745U 23072C   26136.28225328  .00021973  00000+0  46433-3 0  9995
2 56745  97.5275 344.1362 0006351 109.6757 250.5177 15.45167884165319
2023-072G               
1 56749U 23072G   26136.29257862  .00029139  00000+0  54422-3 0  9997
2 56749  97.4929 342.9192 0005642 101.2141 258.9744 15.48709793165521
GEISAT PRECURSOR        
1 56934U 23084C   26136.26428546  .00006556  00000+0  20056-3 0  9996
2 56934  97.6179 276.1869 0007292 100.0173 260.1892 15.34183050162635
BLACKJACK ACES-3        
1 56950U 23084U   26136.20771247  .00003255  00000+0  16205-3 0  9991
2 56950  97.6165 271.1694 0004185 108.9258 251.2430 15.18316419162311
BLACKJACK ACES-2        
1 56955U 23084Z   26136.28017797  .00004942  00000+0  24427-3 0  9996
2 56955  97.6162 271.3274 0002657  95.2487 264.9050 15.18317032162336
BLACKJACK ACES-1        
1 56956U 23084AA  26136.26778347  .00005482  00000+0  27175-3 0  9993
2 56956  97.6151 271.0932 0001560  95.5935 264.5476 15.18164352112053
ION SCV-011             
1 56957U 23084AB  26136.25392856  .00004119  00000+0  15153-3 0  9999
2 56957  98.1377 320.5840 0008109 141.3575 218.8244 15.28511449160933
GHOST-3                 
1 56958U 23084AC  26136.21647745  .00015513  00000+0  31103-3 0  9999
2 56958  97.6177 283.1094 0006929  58.7559 301.4368 15.46784020163073
TOMORROW-R2             
1 56962U 23084AG  26136.27363114  .00198867  00000+0  68091-3 0  9995
2 56962  97.5922 296.3827 0001840 278.4324  81.6739 15.89208775163965
AFR-1                   
1 56964U 23084AJ  26136.28320657  .00003590  00000+0  13300-3 0  9994
2 56964  97.6228 272.2225 0012042  92.1529 268.1089 15.28261532162351
METEOR-M2 3             
1 57166U 23091A   26136.26962037 -.00000013  00000+0  13087-4 0  9990
2 57166  98.6106 191.8971 0002774 259.3665 100.7201 14.24043820149978
UMKA 1 (RS40S)          
1 57172U 23091G   26136.04688847  .00004390  00000+0  20422-3 0  9998
2 57172  97.5071 194.8735 0011742 225.9958 134.0310 15.20424007159120
2023-091H               
1 57173U 23091H   26136.16509795  .00009214  00000+0  34067-3 0  9996
2 57173  97.5069 199.1129 0009157 218.1152 141.9440 15.27900155159413
